,Name,Address,State,Phone,Website,City,State Abbr,Zip
0,"KL Distributors, Inc.",6307 Arctic Spur Road,Alaska,(907) 223-0538,,Anchorage,AK,99518
1,AlaBev,211 Citation Court,Alabama,(205) 942-9403,https://www.alabev.com,Birmingham,AL,35209
2,"Horn Beverage Co., Inc.",104 Industrial Blvd,Alabama,(334) 566-1123,,Troy,AL,36081
3,Bama Budweiser of Montgomery,1700 Emory Folmar Blvd,Alabama,(334) 263-1681,,Montgomery,AL,36110
4,Crescent Crown Distributing,1640 W Broadway Rd,Arizona,(480) 685-2000,https://www.crescentcrown.com,Mesa,AZ,85202
5,Hensley Beverage Co,4201 N 45th Ave,Arizona,(602) 264-1635,https://www.hensley.com,Phoenix,AZ,85031
6,Quail Distributing,21241 N. 23rd Ave.,Arizona,(623) 581-8081,https://www.quailaz.com,Phoenix,AZ,85027
7,Finley Distributing Co.,2104 S Euclid Ave,Arizona,(520) 623-8800,,Tucson,AZ,85713
8,Hops Connect,83 Renfrew Street North,British Columbia,(604) 762-2182,https://www.hopsconnect.com,Vancouver,BC,V5K 3N6
9,TruCraft Beverages (AFIC Group),P.O.Box 2255,British Columbia,(604) 898-1774,https://www.trucraftbeverages.com,Vancouver,BC,V6B 3W5
10,Classic Beverage of Southern California,120 Puente Ave,California,(626) 934-3700,https://classicdist.com/,City of Industry,CA,91746
11,Advance Beverage Co. Inc.,5200 District Blvd,California,(661) 833-3783,https://www.advancebeverage.com,Bakersfield,CA,93313
12,Beauchamp Distributing Co.,1911 S Santa Fe Ave,California,(310) 639-5320,https://www.beauchampdist.com,Compton,CA,90221
13,Delta Pacific Beverage,1264 Dupont Ct,California,(209) 462-6215,https://www.deltapacificbev.com,Manteca,CA,95336
14,"Global Craft Trading, Inc",901 East E Street,California,(310) 514-7226,https://www.globalcraft.com,Wilmington,CA,90744
15,Mussetter Distributing Inc,12979 Earhart Ave,California,(530) 885-4913,https://www.mussetterdistributing.com,Auburn,CA,95602
16,Wine Warehouse,6550 E Washington Blvd,California,(323) 832-4474,https://www.winewarehouse.com,Commerce,CA,90040
17,AMERICAN TALOS INC,16839 Gale Ave,California,(626) 295-4954,,City Of Industry,CA,91745
18,maxiaNET,325 7th Avenue,California,,,San Diego,CA,92101
19,Markstein Sales Company,1645 Drive In Way,California,(925) 755-1919,,Antioch,CA,94509
20,Markstein Beverage Co. of Sacramento,60 Main Ave,California,(916) 920-9070,,Sacramento,CA,95838
21,Elite Brands of Colorado,4780 Holly St,Colorado,(303) 394-7535,,Denver,CO,80216
22,Coors Distributing Company,5400 Pecos St,Colorado,,,Denver,CO,80221
23,Breakthru Beverage CO,3980 Central Park Blvd,Colorado,,,Denver,CO,80238
24,High Country Beverage Corp,4200 Ronald Reagan Blvd,Colorado,(970) 622-8444,,Johnstown,CO,80534
25,Northeast Beverage Corp. of Connecticut,32 Robinson Blvd,Connecticut,(203) 795-4945,https://www.ridistributing.com,Orange,CT,06477
26,Star Distributors Inc,PO Box 1200,Connecticut,(203) 932-3636,https://www.stardistributors.com,New Haven,CT,06505
27,Hartford Distributors Inc.,131 Chapel Rd,Connecticut,(860) 643-2337,,Manchester,CT,06042
28,"Premium Distributors of Washington, D.C.",3500 Fort Lincoln Dr NE,"Washington, D.C.",(703) 470-1376,,Washington,DC,20018
29,Kevin L Thomas Capital DBA (3 Mavins'),3063 NW 28th St,Florida,(614) 218-0145,https://www.3mavins.com,Lauderdale Lakes,FL,33311
30,"Burkhardt Sales & Service of St. Augustine, FL",3935 Inman Rd,Florida,(904) 829-3008,https://www.burkhardtsales.com,Saint Augustine,FL,32084
31,City Beverages Ltd. Partnership,PO Box 620006,Florida,(407) 851-7100,https://www.citybeverages.com,Orlando,FL,32862
32,Eagle Brands Sales,3201 NW 72nd Ave,Florida,(305) 599-2337,https://www.eaglebrands.com,Miami,FL,33122
33,Great Bay Distributors Inc.,2750 Eagle Ave,Florida,(727) 584-8626,https://www.greatbaybud.com,Saint Petersburg,FL,33716
34,"J.J. Taylor Companies, Inc.",655 N Highway A1a,Florida,(561) 354-2900,https://www.jjtaylor.com,Jupiter,FL,33477
35,Tri-Eagle Sales,545 River Birch Rd,Florida,(850) 539-2539,https://www.tallbud.com,Midway,FL,32343
36,North Florida Sales (Triple P Distributing Co.),3601 Regent Blvd,Florida,(904) 645-0283,,Jacksonville,FL,32224
37,"Lewis Bear Co., The",6120 Enterprise Dr,Florida,(850) 434-8612,,Pensacola,FL,32505
38,Burkhardt Distributing Company,6125 NW 18th Dr,Florida,(352) 377-9092,,Gainesville,FL,32653
39,Carroll Distributing Company,1553 Chad Carroll Way,Florida,(321) 421-6283,,Melbourne,FL,32940
40,Pepin Distributing Co.,4121 N 50th St,Florida,(813) 626-6176,,Tampa,FL,33610
41,Cone Distributing Inc.,500 NW 27th Ave,Florida,(352) 732-4111,,Ocala,FL,34475
42,Eagle Rock Distributing Company,6205 Best Friend Rd,Georgia,(770) 498-5500,https://www.eaglerocks.com,Norcross,GA,30071
43,Modern Hops,1007 Branch Dr.,Georgia,(404) 372-7230,https://www.modernhops.com,Alpharetta,GA,30004
44,Northeast Sales Distributing Inc.,840 Ronald Wood Rd,Georgia,(678) 963-7700,https://www.nesdi.com,Winder,GA,30680
45,B & B Beverage Co.,6401 W Hamilton Park Dr,Georgia,(706) 324-1313,,Columbus,GA,31909
46,Fahr Beverage Inc,PO Box 358,Iowa,(319) 234-2605,https://www.fahrbeverage.com,Waterloo,IA,50704
47,"7G Distributing, LLC",9925 6th St SW,Iowa,(563) 556-8911,,Cedar Rapids,IA,52404
48,Breakthru Beverage Group,3333 S Laramie Ave,Illinois,(708) 298-3333,https://www.breakthrubev.com,Cicero,IL,60804
49,Chas. Herdrich and Son,4040 W Dayton St,Illinois,(815) 385-0016,https://www.chasherdrich.com,McHenry,IL,60050
50,"Donnewald Distributing Company, Co.",2100 Samuel W Andrews Dr,Illinois,(618) 664-1600,https://www.donnewalddistributing.com,Greenville,IL,62246
51,Reyes Beverage Group,6250 N. River Road,Illinois,(407) 298-2424,https://www.floridadistributing.com,Rosemont,IL,60018
52,Louis Glunz Beer Inc.,7100 N Capitol Dr,Illinois,(847) 676-9500,https://www.glunzbeers.com,Lincolnwood,IL,60712
53,Heartland Beverage,750 N. 17th St.,Illinois,(312) 683-6962,https://www.heartlandbeverage.com,St. Charles,IL,60174
54,MarketPlace Selections,1723 W Altorfer Dr.,Illinois,(309) 589-0575,https://www.marketplaceselections.com,Peoria,IL,61615
55,"R.J. Distributing Co., Inc.",410 High Point Ln,Illinois,(309) 685-2794,https://www.rjdistributing.net,East Peoria,IL,61611
56,Skeff Distributing Co.,3585 E. L&A Industrial Drive,Illinois,(217) 877-3774,https://www.skeffdist.com,Decatur,IL,62521
57,Blue Ribbon Products Co.,1511 Olympic Blvd.,Illinois,(815) 725-5000,,Joliet,IL,60431
58,"Kozol Bros., Inc.",2010 S Briggs St,Illinois,(815) 722-8335,,Joliet,IL,60433
59,"Superior Beverage Co., Inc.",1070 Orchard Rd,Illinois,(630) 896-1951,,Montgomery,IL,60538
60,"Koerner Distributor, Inc.",1305 W Wabash Ave,Illinois,(217) 347-7113,,Effingham,IL,62401
61,Crown Packaging International,8919 Colorado St,Indiana,(219) 738-1000,https://www.crownpolycon.com,Merrillville,IN,46410
62,Zink Distributing Co,3150 Shelby St,Indiana,(317) 781-5800,https://www.zinkdistributing.com,Indianapolis,IN,46227
63,Terrence Smith Distributing Inc,2215 N. Madison Avenue,Indiana,(765) 644-3396,,Anderson,IN,46011
64,"Calumet Breweries, Inc.",6535 Osborne Ave,Indiana,(219) 845-2242,,Hammond,IN,46320
65,Bartholomew County Beverage,840 Depot Street,Indiana,(812) 376-9253,,Columbus,IN,47201
66,Worldwide Wine & Spirits,17501 W 98th St,Kansas,(913) 859-9925,https://www.worldwidebeveragegroup.com/,Lenexa,KS,66219
67,Standard Beverage Corp.,2526 E 36TH CIR N,Kansas,(316) 838-7707,https://www.stdbev.com,Wichita,KS,67219
68,O'Malley Beverage,2050 Packer Ct,Kansas,(785) 830-6900,,Lawrence,KS,66044
69,Crawford Sales Company,PO Box 156,Kansas,(913) 782-0801,,Olathe,KS,66051
70,Flint Hills Beverage LLC,132 W Market St,Kansas,(785) 528-4211,,Osage City,KS,66523
71,Strathman Sales Co. Inc,4235 SW Burlingame Rd,Kansas,(785) 354-8537,,Topeka,KS,66609
72,"House of Schwan, Inc.",3636 N Comotara St,Kansas,(316) 636-9100,,Wichita,KS,67226
73,West Bev,301 E Wyatt Earp Blvd,Kansas,,,Dodge City,KS,67801
74,Ferm Solutions,PO Box 203,Kentucky,(859) 402-8707,https://www.ferm-solutions.net/,Danville,KY,40423
75,"Perry Distributors, Inc.",540 Oakhurst Ave,Kentucky,(606) 436-3665,https://www.perrydistributors.com,Hazard,KY,41701
76,Dauntless Distributing,1110 W Kentucky Street,Kentucky,,,Louisville,KY,40210
77,Edward Utley Jr. Inc.,PO Box 382,Kentucky,(270) 826-2465,,Henderson,KY,42419
78,"Buquet Distributing Co., Inc.",PO Box 7053,Louisiana,(985) 853-3100,https://www.abwholesaler.com,Houma,LA,70361
79,Crescent Crown Distributing-LA,5900 Almonaster Ave,Louisiana,(504) 240-5900,https://www.crescentcrown.com,New Orleans,LA,70126
80,Southwest Beverage Company Inc,3860 Broad St.,Louisiana,(337) 478-6211,,Lake Charles,LA,70615
81,Mockler Beverage Company,11811 Reiger Rd,Louisiana,(225) 408-4283,,Baton Rouge,LA,70809
82,Quality Beverage L.P.,525 Myles Standish Blvd,Massachusetts,(508) 822-6200,https://www.abwholesaler.com/qualitybeverage,Taunton,MA,02780
83,Burke Distributing Corp.,89 Teed Dr,Massachusetts,(781) 986-6300,https://www.burkedist.com,Randolph,MA,02368
84,Craft Collective,378 Page Street,Massachusetts,(617) 936-0308,https://getcraft.co,Stoughton,MA,02072
85,Global Beer Network,30 Log Bridge Road,Massachusetts,(800) 442-3379,https://www.globalbeer.com,Middleton,MA,01949
86,Massachusetts Beverage Alliance,190 Mechanic St.,Massachusetts,(508) 657-0939,https://www.hgd.beer,Bellingham,MA,02019
87,L. Knife & Son Inc.,35 Elder Ave,Massachusetts,(781) 585-5165,https://www.lknife.com,Kingston,MA,02364
88,Sheehan Family Companies,170 Market Street,Massachusetts,(617) 410-3954,https://www.sheehanfamilycompanies.com,Everett,MA,02149
89,"Commercial Distributing Co., Inc.",PO Box 1476,Massachusetts,(413) 562-9691,,Westfield,MA,01086
90,Girardi Distributors LLC,PO Box 967,Massachusetts,(978) 249-3581,,Athol,MA,01331
91,Atlas Distributing Inc.,44 Southbridge St,Massachusetts,(508) 791-6221,,Auburn,MA,01501
92,Seaboard Products Co.,PO Box 330,Massachusetts,(978) 777-1410,,Danvers,MA,01923
93,Colonial Wholesale Beverage Corp.,970 Old Reed Rd,Massachusetts,(508) 999-2337,,N Dartmouth,MA,02747
94,"BBL, Inc.",4600 Wedgewood Blvd.,Maryland,(240) 257-5200,https://www.bblusa.com,Frederick,MD,21703
95,"DOPS, Inc.",116 Pates Dr,Maryland,(301) 839-8650,,Fort Washington,MD,20744
96,"Bob Hall, LLC",PO Box 1308,Maryland,(301) 627-1900,,Upper Marlboro,MD,20773
97,Legends Limited,8901 Yellow Brick Rd,Maryland,(410) 918-2537,,Baltimore,MD,21237
98,Wantz Distributors Inc,11743 Hopewell Rd,Maryland,(301) 733-3131,,Hagerstown,MD,21740
99,Central Distributors Inc.,PO Box 1936,Maine,(207) 784-4026,https://www.centraldistributors.com,Lewiston,ME,04241
100,Vacationland Distributors,165 Warren Ave # 2,Maine,(207) 233-2370,https://www.vacationlanddistributors.com,Westbrook,ME,04092
101,Valley Beverage,2075 Lisbon Rd,Maine,(207) 783-1777,https://www.valley-beverage.com,Lewiston,ME,04241
102,"Alliance Beverage Distributing, LLC.",4490 60th St SE,Michigan,(616) 648-1187,https://www.alliancebeverage.com,Grand Rapids,MI,49512
103,Atlas Sales Inc.,2955 Columbia Ave W,Michigan,(269) 968-9758,https://www.atlassalesinc.com,Battle Creek,MI,49015
104,Brick Packaging,PO Box 6715,Michigan,(231) 252-1313,https://www.brickpackaging.com,Traverse City,MI,49696
105,Eastown Distributors Co.,14400 Oakland St,Michigan,(313) 867-6900,https://www.eastown.com,Highland Park,MI,48203
106,O & W Inc.,3003 William Ave,Michigan,(734) 480-4012,https://www.onwbeer.com,Ypsilanti,MI,48198
107,Powers Distributing Co.,3700 Giddings Rd,Michigan,(248) 393-3700,https://www.powersdistributing.com,Orion,MI,48359
108,Rave Associates,260 Metty Dr,Michigan,(734) 761-7702,https://www.raveassociates.com,Ann Arbor,MI,48103
109,Henry A. Fox Sales Co.,4494 36th St SE,Michigan,(616) 949-1210,,Grand Rapids,MI,49512
110,College City Beverage Inc.,700 Railway St S,Minnesota,(507) 645-4106,https://www.collegecitybeverage.com,Dundas,MN,55019
111,"D-S Beverages, Inc.",201 17th St N,Minnesota,(218) 233-1343,https://www.d-sbeverages.com,Moorhead,MN,56560
112,"Dahlheimer Distributing Co., Inc.",PO Box 336,Minnesota,(763) 295-3347,https://www.dahlh.com,Monticello,MN,55362
113,Clear River Beverage Company / McDonald Distributing Co.,1255 South Frandsen Ave,Minnesota,(612) 616-4142,-,Rush City,MN,55069
114,Artisan Beer Company,2300 Pilot Knob Road,Minnesota,(651) 695-3546,,Mendota Heights,MN,55120
115,Hohenstein's Distributing,2330 Ventura Dr,Minnesota,(651) 735-4978,,Woodbury,MN,55125
116,Capitol Beverage Sales L.P.,20240 S Diamond Lake Road,Minnesota,(763) 571-4115,,Rogers,MN,55374
117,Schott Distributing Co,6735 Highway 14 E,Minnesota,(507) 289-3555,,Rochester,MN,55904
118,C&L Distributing,1020 Industrial Dr S,Minnesota,(320) 251-7375,,Sauk Rapids,MN,56379
119,Grey Eagle Distributors,2340 Millpark Dr,Missouri,(314) 429-9100,https://www.greyeagle.com,Maryland Heights,MO,63043
120,Lohr Distributing,1100 S 9th St,Missouri,(314) 231-6400,https://www.lohrdistributing.com,Saint Louis,MO,63104
121,Craft Republic,1824 S 3rd St,Missouri,(314) 614-5083,https://www.ourcraftrepublic.com,Saint Louis,MO,63104
122,Summit Distributing,3201 Rider Trl S,Missouri,(314) 874-0400,,Earth City,MO,63045
123,Major Brands - St Louis,6701 Southwest Ave,Missouri,(314) 645-1843,,Saint Louis,MO,63143
124,North Kansas City Beverage Co. Inc.,203 E 11th Ave,Missouri,(816) 471-4895,,North Kansas City,MO,64116
125,Fechtel Beverage & Sales,PO Box 104235,Missouri,(573) 636-5161,,Jefferson City,MO,65110
126,N. H. Sheppers Distributing,1306 Hathman Pl,Missouri,(573) 874-4100,,Columbia,MO,65201
127,"County Distributing Co., Inc.",1800 Eagleview Dr,Missouri,(660) 829-1800,,Sedalia,MO,65301
128,Missouri Eagle LLC,242 Highway Mm,Missouri,(417) 532-6157,,Lebanon,MO,65536
129,Southwest Distributors Inc.,PO Box 1148,Mississippi,(601) 276-2425,https://www.bud4u.com,Summit,MS,39666
130,F.E.B. Distributing Company Inc,12155 Intraplex Pkwy,Mississippi,(228) 863-0422,https://www.febdistributing.com,Gulfport,MS,39503
131,"Magnolia Beverage Co., Inc.",2668 Saint Andrews St,Mississippi,(601) 693-3706,https://www.magbevco.com,Meridian,MS,39301
132,"Southern Beverage Co., Inc.",1939 Davis Johnson Dr,Mississippi,(601) 933-6900,https://www.southernbeverage.com,Jackson,MS,39218
133,"Stokes Distributing Co., Inc.",12 Stokes Dr,Mississippi,(601) 545-3121,,Hattiesburg,MS,39401
134,Eagle Beverage,PO Box 209,Montana,(406) 453-5457,,Great Falls,MT,59403
135,Cardinal Distributing Co,269 Jackrabbit Ln,Montana,(406) 586-0241,,Bozeman,MT,59718
136,Fun Beverage Inc.,175 Schoolhouse Loop,Montana,(406) 752-1455,,Kalispell,MT,59901
137,Caffey Distributing Co,8749 W Market St,North Carolina,(336) 605-6100,https://www.caffeydist.com,Greensboro,NC,27409
138,Carolina Premium Beverage,151 Odell School Road,North Carolina,(704) 886-1100,https://www.caffeydist.com,Concord,NC,28027
139,"United Beverages of NC, LLC",PO Box 727,North Carolina,(704) 633-9361,https://www.unitedbevnc.com,Salisbury,NC,28145
140,R.H. Barringer Dist. Co.,1620 Fairfax Rd,North Carolina,(336) 854-0555,,Greensboro,NC,27407
141,Tryon Distributing Co,4701 Stockholm Ct,North Carolina,(704) 334-0849,,Charlotte,NC,28273
142,"Coastal Beverage Co., Inc.",PO Box 10159,North Carolina,(910) 799-3011,,Wilmington,NC,28404
143,"Skyland Distributing Co., Inc.",1 Overland Industrial Blvd,North Carolina,(828) 670-6600,,Asheville,NC,28806
144,"McQuade Distributing Co, Inc",1150 Industrial Dr,North Dakota,(701) 223-6850,,Bismarck,ND,58501
145,Eagle Distributing Inc,1100 S Bud Blvd,Nebraska,(402) 203-2763,https://www.eagledistributing.beer,Fremont,NE,68106
146,Premier Midwest Beverage,10367 S 134th St,Nebraska,(402) 891-1212,https://www.pmbomaha.com,Omaha,NE,68138
147,Republic National Distributing,4444 S 94th St,Nebraska,(402) 339-9444,,Omaha,NE,68127
148,"Bellavance Beverage Co, Inc.",46 Pettengill Rd,New Hampshire,(603) 882-9722,,Londonderry,NH,03053
149,"New Hampshire Distributors, Inc.",65 Regional Dr,New Hampshire,(603) 410-1824,,Concord,NH,03301
150,Harrison Beverage,PO Box 1011,New Jersey,(609) 645-7100,https://www.harrisonbeverage.com,Pleasantville,NJ,08232
151,High Grade Beverage,PO Box 7092,New Jersey,(732) 821-7600,https://www.highgradebeverage.com,North Brunswick,NJ,08902
152,Kramer Beverage Co,PO Box 470,New Jersey,(609) 704-7000,https://www.kramerbev.com,Hammonton,NJ,08037
153,Liquid Runner Beverage Company LLC,1745 Lakewood rd,New Jersey,(732) 939-4477,https://www.liquidrunner.com,Toms River,NJ,08775
154,Ritchie & Page Distributing,175 New Canton Way,New Jersey,(609) 468-9044,https://www.rpdbeer.com,Robbinsville,NJ,08691
155,Peerless Beverage Co,1000 Floral Ave,New Jersey,(908) 351-0101,,Union,NJ,07083
156,Kohler Distributors,150 Wagaraw Rd,New Jersey,(973) 423-2307,,Hawthorne,NJ,07506
157,Shore Point Distributing Co Inc,PO Box 275,New Jersey,,,Adelphia,NJ,07710
158,Black River Traders Inc.,25 Ironia Rd,New Jersey,(973) 927-7474,,Flanders,NJ,07836
159,Hunterdon Beverage Co,PO Box 1050,New Jersey,(908) 454-7445,,Whitehouse Station,NJ,08889
160,Premier Distributing Company,4321 Yale Blvd. NE,New Mexico,(505) 344-0287,https://www.premierdistributing.com,Albuquerque,NM,87107
161,National Distributing Co,5920 Office Blvd NE,New Mexico,(505) 343-3360,,Albuquerque,NM,87109
162,Vin Sauvage,4050 W Sunset Rd,Nevada,(702) 212-5600,https://www.vinsauvage.com,Las Vegas,NV,89118
163,Southern Wine & Spirits of Nevada,8400 S Jones Blvd,Nevada,(702) 876-4500,,Las Vegas,NV,89139
164,"Gasko & Meyer, Inc.",PO Box 298,New York,(845) 932-8424,https://www.gasko-meyer.com,Lake Huntington,NY,12752
165,Union Beer Distributors,1213 Grand St,New York,(718) 497-2407,https://www.greatbrewers.com,Brooklyn,NY,11211
166,"TJ Sheehan Distributing, Inc.",225 Commerce Blvd,New York,(315) 451-7250,https://www.greatbrewers.com/tj-sheehan-distributing,Liverpool,NY,13088
167,Lake Beverage Corp,900 John St,New York,(585) 427-0090,https://www.lakebeverage.com,West Henrietta,NY,14586
168,Remarkable Liquids,PO Box 122,New York,(518) 861-5351,https://www.remarkableliquids.com,Guilderland Center,NY,12085
169,TapRm,509 Pacific St,New York,(646) 617-1183,https://www.taprm.com,Brooklyn,NY,11217
170,"Oak Beverages, Inc.",700 Bradley Hill Rd,New York,(845) 353-1800,,Blauvelt,NY,10913
171,Dana Distributors Inc.,52 Hatfield Ln,New York,(845) 294-4100,,Goshen,NY,10924
172,S.K.I. Beer Corp,169 Gardner Ave,New York,(718) 821-7200,,Brooklyn,NY,11237
173,Boening Bros. Inc,1098 Route 109,New York,(631) 957-0200,,Lindenhurst,NY,11757
174,Clare Rose Inc.,100 Rose Executive Blvd,New York,(631) 475-1840,,East Yaphank,NY,11967
175,DeCrescente Distributing Co,211 N Main St,New York,(518) 664-9866,,Mechanicville,NY,12118
176,Saratoga Eagle Sales & Service,45 Duplain Rd,New York,(518) 824-2801,,Saratoga Springs,NY,12866
177,"A.L. George, LLC",7655 Edgecomb Dr,New York,(315) 451-8360,,Liverpool,NY,13088
178,Eagle Beverages Co Inc,PO Box 1035,New York,(315) 343-5221,,Oswego,NY,13126
179,Northern Eagle Beverages,41 Browne St.,New York,(607) 432-0400,,Oneonta,NY,13820
180,Rocco J. Testani Inc.,29 Phelps St,New York,(607) 722-6476,,Binghamton,NY,13901
181,Wright Beverage Distributing,3165 Brighton Henrietta Town Line Rd,New York,(585) 427-2880,,Rochester,NY,14623
182,"Arthur R. Gren Co., Inc.",1886 Mason Dr,New York,(716) 665-3911,,Jamestown,NY,14701
183,Seneca Beverage,2085 Lake Rd,New York,,,Elmira,NY,14903
184,Beverage Distributors Inc.,3800 King Avenue,Ohio,(216) 310-9620,https://www.beveragedist.com/,Cleveland,OH,44114
185,Heidelberg Distributing Co - Corporate Office,3601 Dryden Rd,Ohio,(937) 222-8692,https://www.heidelbergdistributing.com,Dayton,OH,45439
186,RL Lipton Distributing Co.,425 Victoria Road,Ohio,(330) 629-2337,https://www.rllipton.com,Youngstown,OH,44515
187,Matesich Distributing Co.,1190 E Main St,Ohio,(740) 349-8686,,Newark,OH,43055
188,Treu House of Munch Inc.,8000 Arbor Dr,Ohio,(419) 666-7770,,Northwood,OH,43619
189,Beverage Distributors INC,3800 King Avenue,Ohio,(216) 310-9620,,Cleveland,OH,44114
190,The House of LaRose Inc,6745 Southpointe Pkwy,Ohio,(440) 746-7500,,Brecksville,OH,44141
191,Ohio Valley Wine and Beer Co.,10975 Medallion Dr,Ohio,,,Cincinnati,OH,45241
192,Republic National Distributing,605 North Tulsa Ave,Oklahoma,(405) 702-4500,,Oklahoma City,OK,73107
193,Quality Beverage Co,315 S 85th East Ave,Oklahoma,(918) 836-2511,,Tulsa,OK,74112
194,TNG,3320 South Service Road,Ontario,(905) 681-5683,https://www.tng.com,Burlington,ON,L7N 3M6
195,Bigfoot Beverages,86776 McVay Hwy,Oregon,(541) 687-0251,https://www.bigfootbeverages.com,Eugene,OR,97440
196,Columbia Distributing Co - Corporate,27200 SW Parkway Ave,Oregon,(503) 274-9990,https://www.coldist.com,Wilsonville,OR,97070
197,Maletis Beverage,PO Box 3109,Oregon,(503) 735-2340,https://www.maletis.com,Portland,OR,97208
198,Point Blank Distributing,1761 NE Argyle St,Oregon,(503) 232-1668,https://www.pointblankdistributing.com,Portland,OR,97211
199,"Sodbuster Farms, Inc.",9815 Wheatland Rd N,Oregon,,https://www.sodbusterfarms.com,Salem,OR,97303
200,BSG,20495 SE Clover Crest Court,Oregon,(619) 380-5989,,Bend,OR,97702
201,Vecenie's Distributing Co.,140 North Ave.,Pennsylvania,(412) 821-4618,https://www.beersince1933.com,Pittsburgh,PA,15209
202,Frank B. Fuhrer Wholesale Co,3100 East Carson St,Pennsylvania,(412) 488-8845,https://www.fuhrerwholesale.com,Pittsburgh,PA,15203
203,Mid-State Beverage Co,1805 E 3rd St,Pennsylvania,(570) 322-7859,https://www.midstatebeverage.com,Williamsport,PA,17701
204,Nevulis Beverages,301 S 4th Street,Pennsylvania,(610) 421-6385,https://www.nevulisbeverages.com,Emmaus,PA,18049
205,Origlio Beverage,3000 Meetinghouse Rd,Pennsylvania,(215) 698-9500,https://www.origlio.com,Philadelphia,PA,19154
206,"Penn Beer Co., Inc.",1825 E 12th St,Pennsylvania,(814) 454-1578,https://www.pennbeercompany.com,Erie,PA,16511
207,"Resort Beverage Co., Inc.",PO Box 143,Pennsylvania,(570) 629-1686,https://www.resortbeverage.com,Tannersville,PA,18372
208,Inco Beverage Inc,147 Allison Dr,Pennsylvania,,,Johnstown,PA,15904
209,Wilsbach Dist,905 Katie Ct,Pennsylvania,(717) 561-3760,,Harrisburg,PA,17109
210,"Durdach Bros., Inc",PO Box 117,Pennsylvania,(570) 648-5706,,Paxinos,PA,17860
211,Shangy's The Beer Authority,40 E Main St,Pennsylvania,(610) 509-0518,,Emmaus,PA,18049
212,Stockertown Beverage,PO Box 20,Pennsylvania,,,Stockertown,PA,18083
213,"Muller, Inc",2800 Grant Ave,Pennsylvania,(215) 676-7575,,Philadelphia,PA,19114
214,Penn Distributors,2801 E Township Line Rd,Pennsylvania,(215) 487-0300,,Hatfield,PA,19440
215,"McLaughlin & Moran, Inc.",40 Slater Rd,Rhode Island,(401) 463-5454,https://www.mclaughlinmoran.com,Cranston,RI,02920
216,Horizon Beverage Company of Rhode Island,121 Hopkins Hill Rd,Rhode Island,(401) 392-3580,,West Greenwich,RI,02817
217,C & C Distributors,119 Hopkins Hill Rd,Rhode Island,(401) 822-6400,,West Greenwich,RI,02817
218,Advintage Distributing,9570 William Aiken Ave,South Carolina,(843) 225-2005,https://www.advintagedistributing.com,Ladson,SC,29456
219,KW Beverage,2101 South Carolina 86,South Carolina,(864) 269-3853,https://www.kwbeverage.com,Piedmont,SC,29673
220,Better Brands,908 Jackson St,South Carolina,,,Myrtle Beach,SC,29577
221,Greenco Beverage Co,10 Metts St.,South Carolina,(864) 242-1464,,Greenville,SC,29609
222,Comer Distributing,PO Box 10821,South Carolina,(803) 324-1180,,Rock Hill,SC,29731
223,Johnson Brothers of South Dakota,300 East 50th St N,South Dakota,(605) 359-3145,https://www.johnsonbrothersofsouthdakota.com,Sioux Falls,SD,57104
224,"Dakota Beverage Co., Inc.",4532 N Cliff Ave,South Dakota,,,Sioux Falls,SD,57104
225,"Beal Distributing, Inc.",4815 N Northview Ave,South Dakota,(605) 336-2988,,Sioux Falls,SD,57107
226,Porter Distributing Co.,PO Box 187,South Dakota,(605) 996-7465,,Mitchell,SD,57301
227,Cherokee Distributing Co.,200 Miller Main Cir,Tennessee,(865) 588-7641,https://www.cherokeedistributing.com/,Knoxville,TN,37919
228,Ajax Turner Co,4010 Centre Pointe Dr,Tennessee,(615) 207-6539,https://www.restaurantji.com/tn/la-vergne/ajax-turner-/,La Vergne,TN,37086
229,BountyBev,414 Harding Industrial Drive,Tennessee,(615) 715-2059,https://www.bountybev.com,Nashville,TN,37211
230,Hand Family Companies,2059 Wilma Rudolph Blvd,Tennessee,(931) 552-3300,,Clarksville,TN,37040
231,Ajax Distributing Co.,330 Warfield Blvd,Tennessee,(931) 648-0645,,Clarksville,TN,37043
232,Lipman Bros. Inc / R S Lipman Co,411 Great Circle Rd,Tennessee,(615) 244-2230,,Nashville,TN,37228
233,Det Distributing Co.,301 Great Circle Rd,Tennessee,(615) 244-4113,,Nashville,TN,37228
234,Hand Family Companies,200 Shearer Street,Tennessee,(931) 644-8794,,Soddy-Daisy,TN,37379
235,L & H Distributing,PO Box 340,Tennessee,(931) 455-5571,,Tullahoma,TN,37388
236,Eagle Dist Co,310 Radford Pl,Tennessee,(865) 637-3311,,Knoxville,TN,37917
237,Athens Distributing Company,905 James Street,Tennessee,(901) 774-8888,,Memphis,TN,38106
238,Andrews Distributing Co,2730 Irving Blvd,Texas,(214) 525-9400,https://www.andrewsdistributing.com,Dallas,TX,75207
239,Artisanal Import Inc.,145 Old Lockhart Rd,Texas,(512) 440-0811,https://www.artisanalimports.com,Lockhart,TX,78644
240,Ben E Keith Beverages - HQ,1805 Record Crossing Rd,Texas,(214) 634-1500,https://www.benekeith.com,Dallas,TX,75235
241,Ben E Keith Beverages,2019 W Oak St,Texas,(903) 729-1770,https://www.benekeith.com,Palestine,TX,75801
242,Ben E Keith Beverages,7001 Will Rogers Blvd,Texas,(817) 568-4000,https://www.benekeith.com,Fort Worth,TX,76140
243,Ben E Keith Beverages,PO Box 2185,Texas,(940) 383-3502,https://www.benekeith.com,Denton,TX,76202
244,Ben E Keith Beverages,320 S University Parks Dr,Texas,(254) 752-5574,https://www.benekeith.com,Waco,TX,76701
245,Ben E Keith Beverages,PO Box 549,Texas,(325) 247-4224,https://www.benekeith.com,Llano,TX,78643
246,Ben E Keith Beverages,2141 Cottonwood St,Texas,,https://www.benekeith.com,Abilene,TX,79601
247,Giglio Distributing Co.,155 Martin Luther King Parkway,Texas,(409) 838-1654,,Beaumont,TX,77701
248,L&F Distributors / Favorite Brands - Loredo,410 Crossroads Loop,Texas,(956) 723-6354,,Laredo,TX,78045
249,Ben E Keith Beverages - Specialty Division,4101 McKinney Falls Pkwy,Texas,(512) 444-2337,,Austin,TX,78744
250,Ben E Keith Beverages,12170 Rojas Dr,Texas,(915) 872-9606,,El Paso,TX,79936
251,M & M Distributing Co.,531 W 600 N,Utah,(801) 972-4255,,Salt Lake City,UT,84116
252,Blue Ridge Beverage,PO Box 700,Virginia,(540) 380-2000,https://www.blueridgebeverage.com,Salem,VA,24153
253,Brown Distributing Co.,7986 Villa Park Dr.,Virginia,(804) 553-1520,https://www.brown.com,Richmond,VA,23228
254,Hop & Wine Beverage,4605 Brookfield Corporate Dr,Virginia,(703) 421-2337,https://www.hopandwine.com,Chantilly,VA,20151
255,Kysela Pere Et Fils,331 Victory Road,Virginia,(540) 722-9228,https://www.kysela.com,Winchester,VA,22602
256,P.A. Short Distributing Co,440 Industrial Dr,Virginia,(540) 992-5000,https://www.pashort.com,Hollins,VA,24019
257,"Specialty Beverage, Inc.",5401 Eubank Rd,Virginia,(804) 233-9801,,Sandston,VA,23150
258,Allied Craft Distribution,2707 Ellis Lane,Virginia,(804) 317-7193,,Henrico,VA,23294
259,M. Price Distributing Co.,1 Budweiser St,Virginia,(757) 722-1911,,Hampton,VA,23661
260,Pecht Distributors Inc.,514 New St,Virginia,(434) 848-2322,,Lawrenceville,VA,23868
261,Danville Distributing Co.,PO Box 11805,Virginia,(434) 792-9181,,Danville,VA,24543
262,Farrell Distributing,5 Holmes Road,Vermont,(802) 864-4422,https://www.farrelldistributing.com,South Burlington,VT,05403
263,Baker Distributing Corp.,PO Box 50,Vermont,(802) 773-3397,,North Clarendon,VT,05759
264,CSB (Craig Stein Beverage),5408 NE 88th St,Washington,(360) 693-8251,https://www.csbeverage.com,Vancouver,WA,98665
265,Stein Distributing Co.,5408 NE 88th,Washington,,https://www.csbeverage.com,Vancouver,WA,98665
266,Great Artisan Beverage Co,11400 SE 8th St,Washington,(206) 512-9425,https://www.gabeverage.com,Bellevue,WA,98004
267,John I Haas Inc.,1600 River Road,Washington,(509) 469-4057,https://www.johnihaas.com,Yakima,WA,98902
268,Kendall's Pioneer Distributing,219 S TIMM RD,Washington,(360) 696-0766,https://www.kendallspioneer.com,Ridgefield,WA,98642
269,Merchant du Vin Corp,917 Pacific Ave.,Washington,(253) 656-0321,https://www.merchantduvin.com,Tacoma,WA,98402
270,The Odom Corporation,11400 SE 8th St,Washington,(425) 456-3556,https://www.odomcorp.com,Bellevue,WA,98004
271,Olympic Eagle Distributing,1101 N Levee Rd,Washington,(253) 405-6712,https://www.olympiceagle.com,Puyallup,WA,98371
272,Walton Beverage,1350 Pacific Place,Washington,(360) 3801660,https://www.waltonbeverage.com,Ferndale,WA,98248
273,NW Beverages LLC,11400 SE 8th Street,Washington,(206) 763-3200,,Bellevue,WA,98004
274,Dickerson Distributors,1313 Meador Ave,Washington,(360) 676-1260,,Bellingham,WA,98229
275,"Barr, Inc.",1423 Planeview Dr,Wisconsin,(920) 231-1711,https://www.barrinc.com,Oshkosh,WI,54904
276,Brew Pipeline Inc,1256 Capital Dr,Wisconsin,(920) 248-1020,https://www.brewpipeline.com,Pewaukee,WI,53072
277,General Beer Distributors,6169 McKee Rd,Wisconsin,(608) 271-1234,https://www.genbev.com,Madison,WI,53719
278,Pequod Distribution,500 S Division St,Wisconsin,(608) 571-4232,https://www.pequoddistro.com,Waunakee,WI,53597
279,Wisconsin Distributors,900 Progress Way,Wisconsin,(608) 834-2337,https://www.wisconsindistributors.com,Sun Prairie,WI,53590
280,Beer Capitol Distributing / Company Inc,W222 N5700 Miller Way,Wisconsin,(262) 932-2337,,Sussex,WI,53089
281,Beechwood Sales & Service,5350 S Emmer Dr,Wisconsin,(262) 717-2831,,New Berlin,WI,53151
282,CJW Inc.,2437 Chicory Rd,Wisconsin,(262) 554-4288,,Racine,WI,53403
283,"Frank Beer Distributors, Inc.",PO Box 620710,Wisconsin,(608) 836-6000,,Middleton,WI,53562
284,Triangle Distributing,PO Box 28375,Wisconsin,,,Green Bay,WI,54324
285,The American Beer Company Inc,HC 71 Box 152-A,West Virginia,(304) 392-6311,,Meadow Bluff,WV,24977
286,Mona Supply Company Inc.,PO Box 70,West Virginia,(304) 296-5611,,Dellslow,WV,26531
287,Mountain State Beverage,333 Jersey Mountain Rd,West Virginia,(304) 822-5139,,Romney,WV,26757
288,Northern Eagle Inc.,333 Jersey Mountain Rd,West Virginia,(304) 822-5139,,Romney,WV,26757
289,Cheyenne Beverage,2208 E Allison Rd,Wyoming,(307) 757-7582,https://www.cheyennebeverage.com,Chyenne,WY,82007
290,Western Wyoming Beverages,100 Reliance Road,Wyoming,,https://www.westernwyomingbeverages.com,Rock Springs,WY,82901
291,Tanager Beverages,PO Box 2077,Wyoming,(307) 527-7272,,Cody,WY,82414
292,Western Distributing Company,PO Box 1969,Wyoming,(307) 265-8414,,Casper,WY,82602
